{
  "norad_id": 62085,
  "name": "KINEIS-5B",
  "history": [
    {
      "epoch": "2026-03-28T21:41:32.305632Z",
      "apogee_km": 637.1092076643263,
      "perigee_km": 633.3034870303227,
      "latitude_deg": 0.00010346158737966489,
      "longitude_deg": 100.54657141663388,
      "height_km": 639.7309016434413,
      "semi_major_axis_km": 7013.343347347324,
      "eccentricity": 0.00027132,
      "inclination_deg": 97.9979,
      "raan_deg": 252.2488,
      "arg_perigee_deg": 142.5616,
      "mean_anomaly_deg": 217.5785,
      "mean_motion_rev_day": 14.78138438
    },
    {
      "epoch": "2026-03-29T04:11:27.254400Z",
      "apogee_km": 637.1142866928749,
      "perigee_km": 633.2906140245395,
      "latitude_deg": 3.146035498875126e-05,
      "longitude_deg": 3.0696404390973684,
      "height_km": 639.7206606518276,
      "semi_major_axis_km": 7013.339450358707,
      "eccentricity": 0.0002726,
      "inclination_deg": 97.9979,
      "raan_deg": 252.5177,
      "arg_perigee_deg": 141.9046,
      "mean_anomaly_deg": 218.2358,
      "mean_motion_rev_day": 14.7813967
    },
    {
      "epoch": "2026-03-30T04:33:38.092608Z",
      "apogee_km": 637.1399624140249,
      "perigee_km": 633.2335410842998,
      "latitude_deg": -2.1984840023525067e-06,
      "longitude_deg": -2.4679405013693794,
      "height_km": 639.6864244532964,
      "semi_major_axis_km": 7013.323751749162,
      "eccentricity": 0.0002785,
      "inclination_deg": 97.9981,
      "raan_deg": 253.5261,
      "arg_perigee_deg": 139.5465,
      "mean_anomaly_deg": 220.5953,
      "mean_motion_rev_day": 14.78144633
    },
    {
      "epoch": "2026-03-30T06:11:06.806688Z",
      "apogee_km": 637.1362859341843,
      "perigee_km": 633.2357562027883,
      "latitude_deg": 8.78448114728797e-05,
      "longitude_deg": -26.837116715267772,
      "height_km": 639.6812964801325,
      "semi_major_axis_km": 7013.323021068486,
      "eccentricity": 0.00027808,
      "inclination_deg": 97.9981,
      "raan_deg": 253.5933,
      "arg_perigee_deg": 139.4497,
      "mean_anomaly_deg": 220.6922,
      "mean_motion_rev_day": 14.78144864
    },
    {
      "epoch": "2026-03-30T12:41:01.643136Z",
      "apogee_km": 637.1389983436102,
      "perigee_km": 633.2255661841073,
      "latitude_deg": 8.85807041003374e-06,
      "longitude_deg": -124.31367717326523,
      "height_km": 639.671311001096,
      "semi_major_axis_km": 7013.319282263858,
      "eccentricity": 0.000279,
      "inclination_deg": 97.9977,
      "raan_deg": 253.8621,
      "arg_perigee_deg": 138.9509,
      "mean_anomaly_deg": 221.1912,
      "mean_motion_rev_day": 14.78146046
    },
    {
      "epoch": "2026-03-30T22:25:53.913792Z",
      "apogee_km": 637.1716886518952,
      "perigee_km": 633.1813937794859,
      "latitude_deg": 7.987730760122525e-05,
      "longitude_deg": 89.47168887631756,
      "height_km": 639.677395165078,
      "semi_major_axis_km": 7013.313541215691,
      "eccentricity": 0.00028448,
      "inclination_deg": 97.9975,
      "raan_deg": 254.2656,
      "arg_perigee_deg": 138.2109,
      "mean_anomaly_deg": 221.932,
      "mean_motion_rev_day": 14.78147861
    },
    {
      "epoch": "2026-03-31T21:10:35.643072Z",
      "apogee_km": 637.18288949014,
      "perigee_km": 633.1460331689987,
      "latitude_deg": -4.1403928130312246e-05,
      "longitude_deg": 108.3047342682934,
      "height_km": 639.6391244070882,
      "semi_major_axis_km": 7013.301461329569,
      "eccentricity": 0.0002878,
      "inclination_deg": 97.9977,
      "raan_deg": 255.2066,
      "arg_perigee_deg": 136.3939,
      "mean_anomaly_deg": 223.7499,
      "mean_motion_rev_day": 14.7815168
    },
    {
      "epoch": "2026-04-01T19:55:17.152896Z",
      "apogee_km": 637.1889353875431,
      "perigee_km": 633.1226282326488,
      "latitude_deg": -6.831212362736545e-06,
      "longitude_deg": 127.13877465967147,
      "height_km": 639.5863861555807,
      "semi_major_axis_km": 7013.292781810095,
      "eccentricity": 0.0002899,
      "inclination_deg": 97.9983,
      "raan_deg": 256.1477,
      "arg_perigee_deg": 134.2091,
      "mean_anomaly_deg": 225.9358,
      "mean_motion_rev_day": 14.78154424
    },
    {
      "epoch": "2026-04-02T20:17:27.059712Z",
      "apogee_km": 637.228791331213,
      "perigee_km": 633.0502811709139,
      "latitude_deg": 2.1469669151817117e-05,
      "longitude_deg": 121.60507664672593,
      "height_km": 639.5559807288604,
      "semi_major_axis_km": 7013.276536251063,
      "eccentricity": 0.0002979,
      "inclination_deg": 97.9982,
      "raan_deg": 257.1561,
      "arg_perigee_deg": 132.2128,
      "mean_anomaly_deg": 227.9336,
      "mean_motion_rev_day": 14.7815956
    },
    {
      "epoch": "2026-04-02T21:54:55.707264Z",
      "apogee_km": 637.2300863601022,
      "perigee_km": 633.0462469266904,
      "latitude_deg": 2.373201373455883e-05,
      "longitude_deg": 97.23619062783605,
      "height_km": 639.5519533546372,
      "semi_major_axis_km": 7013.275166643396,
      "eccentricity": 0.00029828,
      "inclination_deg": 97.9982,
      "raan_deg": 257.2233,
      "arg_perigee_deg": 132.0491,
      "mean_anomaly_deg": 228.0974,
      "mean_motion_rev_day": 14.78159993
    },
    {
      "epoch": "2026-04-03T20:39:36.614880Z",
      "apogee_km": 637.2223582754732,
      "perigee_km": 633.0101983565164,
      "latitude_deg": -3.6284637942493625e-06,
      "longitude_deg": 116.07275455115207,
      "height_km": 639.4863192376931,
      "semi_major_axis_km": 7013.253278315995,
      "eccentricity": 0.0003003,
      "inclination_deg": 97.9985,
      "raan_deg": 258.1644,
      "arg_perigee_deg": 130.133,
      "mean_anomaly_deg": 230.0144,
      "mean_motion_rev_day": 14.78166913
    },
    {
      "epoch": "2026-04-04T21:01:45.878016Z",
      "apogee_km": 637.2419633303516,
      "perigee_km": 632.9694958594819,
      "latitude_deg": 6.605852083226448e-06,
      "longitude_deg": 110.54154676282967,
      "height_km": 639.4414774075723,
      "semi_major_axis_km": 7013.242729594916,
      "eccentricity": 0.0003046,
      "inclination_deg": 97.9988,
      "raan_deg": 259.1726,
      "arg_perigee_deg": 128.2796,
      "mean_anomaly_deg": 231.8689,
      "mean_motion_rev_day": 14.78170248
    },
    {
      "epoch": "2026-04-05T13:16:31.905984Z",
      "apogee_km": 637.2496801187854,
      "perigee_km": 632.9408904673464,
      "latitude_deg": -2.8529823759631573e-05,
      "longitude_deg": -133.1451370292683,
      "height_km": 639.4022149385656,
      "semi_major_axis_km": 7013.232285293066,
      "eccentricity": 0.00030719,
      "inclination_deg": 97.999,
      "raan_deg": 259.8449,
      "arg_perigee_deg": 126.9384,
      "mean_anomaly_deg": 233.2108,
      "mean_motion_rev_day": 14.7817355
    },
    {
      "epoch": "2026-04-05T21:23:54.875040Z",
      "apogee_km": 637.2542796671614,
      "perigee_km": 632.9271181769263,
      "latitude_deg": -5.913870275891268e-05,
      "longitude_deg": 105.0116605579539,
      "height_km": 639.3857444793126,
      "semi_major_axis_km": 7013.227698922044,
      "eccentricity": 0.0003085,
      "inclination_deg": 97.9991,
      "raan_deg": 260.181,
      "arg_perigee_deg": 126.3656,
      "mean_anomaly_deg": 233.7839,
      "mean_motion_rev_day": 14.78175
    },
    {
      "epoch": "2026-04-06T05:31:17.825952Z",
      "apogee_km": 637.2594656483752,
      "perigee_km": 632.916175516988,
      "latitude_deg": 5.699749048054494e-05,
      "longitude_deg": -16.83138671641298,
      "height_km": 639.3641519129742,
      "semi_major_axis_km": 7013.224820582682,
      "eccentricity": 0.00030965,
      "inclination_deg": 97.9992,
      "raan_deg": 260.5172,
      "arg_perigee_deg": 125.6023,
      "mean_anomaly_deg": 234.5477,
      "mean_motion_rev_day": 14.7817591
    },
    {
      "epoch": "2026-04-07T12:23:20.882688Z",
      "apogee_km": 637.2493836104231,
      "perigee_km": 632.9056790582954,
      "latitude_deg": -1.1092401118449484e-05,
      "longitude_deg": -119.83420085087526,
      "height_km": 639.2667118923857,
      "semi_major_axis_km": 7013.214531334359,
      "eccentricity": 0.00030968,
      "inclination_deg": 97.9994,
      "raan_deg": 261.7948,
      "arg_perigee_deg": 122.8232,
      "mean_anomaly_deg": 237.3277,
      "mean_motion_rev_day": 14.78179163
    },
    {
      "epoch": "2026-04-07T20:30:43.774848Z",
      "apogee_km": 637.256026606572,
      "perigee_km": 632.8966132069181,
      "latitude_deg": -4.694196020598865e-05,
      "longitude_deg": 118.32301836005247,
      "height_km": 639.2477267917756,
      "semi_major_axis_km": 7013.213319906745,
      "eccentricity": 0.0003108,
      "inclination_deg": 97.9995,
      "raan_deg": 262.131,
      "arg_perigee_deg": 122.1384,
      "mean_anomaly_deg": 238.0128,
      "mean_motion_rev_day": 14.78179546
    },
    {
      "epoch": "2026-04-08T14:22:57.991584Z",
      "apogee_km": 637.2715250082592,
      "perigee_km": 632.8677922831639,
      "latitude_deg": 4.062405850657961e-05,
      "longitude_deg": -149.73055266640492,
      "height_km": 639.2018550282917,
      "semi_major_axis_km": 7013.206658645711,
      "eccentricity": 0.00031396,
      "inclination_deg": 97.9996,
      "raan_deg": 262.8706,
      "arg_perigee_deg": 120.5889,
      "mean_anomaly_deg": 239.5632,
      "mean_motion_rev_day": 14.78181652
    }
  ]
}